{
  "norad_id": 32388,
  "name": "HORIZONS-2",
  "history": [
    {
      "epoch": "2026-03-28T21:16:50.725344",
      "apogee_km": 35797.587375759584,
      "perigee_km": 35775.317726142355,
      "latitude_deg": -2.3157459461964383,
      "longitude_deg": 23.9230281598866,
      "semi_major_axis_km": 42164.58955095097,
      "eccentricity": 0.00026408,
      "inclination_deg": 2.3957,
      "raan_deg": 81.6029,
      "arg_perigee_deg": 288.4938,
      "mean_anomaly_deg": 61.6085,
      "mean_motion_rev_day": 1.00272293
    },
    {
      "epoch": "2026-03-29T04:07:31.035936",
      "apogee_km": 35797.61320638714,
      "perigee_km": 35775.316564910005,
      "latitude_deg": 0.9518566745121981,
      "longitude_deg": 51.301151040242985,
      "semi_major_axis_km": 42164.601885648575,
      "eccentricity": 0.0002644,
      "inclination_deg": 2.3965,
      "raan_deg": 81.5992,
      "arg_perigee_deg": 289.244,
      "mean_anomaly_deg": 163.8118,
      "mean_motion_rev_day": 1.00272249
    }
  ]
}